[{"OBJECT_NAME":"STARLINK-36852","OBJECT_ID":"2026-037B","EPOCH":"2026-03-10T20:00:00.999360","MEAN_MOTION":15.81972897,"ECCENTRICITY":0.0001333,"INCLINATION":42.9985,"RA_OF_ASC_NODE":191.5604,"ARG_OF_PERICENTER":279.9384,"MEAN_ANOMALY":37.3157,"EPHEMERIS_TYPE":0,"CLASSIFICATION_TYPE":"U","NORAD_CAT_ID":67933,"ELEMENT_SET_NO":999,"REV_AT_EPOCH":338,"BSTAR":0.00063689,"MEAN_MOTION_DOT":0.00135413,"MEAN_MOTION_DDOT":0},{"OBJECT_NAME":"STARLINK-36861","OBJECT_ID":"2026-037C","EPOCH":"2026-03-10T20:00:00.999360","MEAN_MOTION":15.81960051,"ECCENTRICITY":0.0002028,"INCLINATION":42.9984,"RA_OF_ASC_NODE":191.5498,"ARG_OF_PERICENTER":239.9642,"MEAN_ANOMALY":81.5768,"EPHEMERIS_TYPE":0,"CLASSIFICATION_TYPE":"U","NORAD_CAT_ID":67934,"ELEMENT_SET_NO":999,"REV_AT_EPOCH":338,"BSTAR":0.00045688,"MEAN_MOTION_DOT":0.00096498,"MEAN_MOTION_DDOT":0},{"OBJECT_NAME":"STARLINK-36860","OBJECT_ID":"2026-037D","EPOCH":"2026-03-10T20:00:00.999360","MEAN_MOTION":15.81953185,"ECCENTRICITY":0.0001985,"INCLINATION":42.9982,"RA_OF_ASC_NODE":191.539,"ARG_OF_PERICENTER":252.1518,"MEAN_ANOMALY":73.6621,"EPHEMERIS_TYPE":0,"CLASSIFICATION_TYPE":"U","NORAD_CAT_ID":67935,"ELEMENT_SET_NO":999,"REV_AT_EPOCH":338,"BSTAR":0.00049691,"MEAN_MOTION_DOT":0.00105068,"MEAN_MOTION_DDOT":0},{"OBJECT_NAME":"STARLINK-36848","OBJECT_ID":"2026-037E","EPOCH":"2026-03-10T20:00:00.999360","MEAN_MOTION":15.81969796,"ECCENTRICITY":0.000187,"INCLINATION":42.9984,"RA_OF_ASC_NODE":191.5173,"ARG_OF_PERICENTER":295.6246,"MEAN_ANOMALY":38.7473,"EPHEMERIS_TYPE":0,"CLASSIFICATION_TYPE":"U","NORAD_CAT_ID":67936,"ELEMENT_SET_NO":999,"REV_AT_EPOCH":338,"BSTAR":0.00028265,"MEAN_MOTION_DOT":0.00059262,"MEAN_MOTION_DDOT":0},{"OBJECT_NAME":"STARLINK-36370","OBJECT_ID":"2026-037F","EPOCH":"2026-03-10T20:00:00.999360","MEAN_MOTION":15.81958076,"ECCENTRICITY":0.0001739,"INCLINATION":42.9984,"RA_OF_ASC_NODE":191.5291,"ARG_OF_PERICENTER":285.9067,"MEAN_ANOMALY":44.1764,"EPHEMERIS_TYPE":0,"CLASSIFICATION_TYPE":"U","NORAD_CAT_ID":67937,"ELEMENT_SET_NO":999,"REV_AT_EPOCH":338,"BSTAR":0.00049549,"MEAN_MOTION_DOT":0.00104787,"MEAN_MOTION_DDOT":0},{"OBJECT_NAME":"STARLINK-36371","OBJECT_ID":"2026-037G","EPOCH":"2026-03-10T20:00:00.999360","MEAN_MOTION":15.81962544,"ECCENTRICITY":0.0002114,"INCLINATION":42.9981,"RA_OF_ASC_NODE":191.5062,"ARG_OF_PERICENTER":257.5312,"MEAN_ANOMALY":81.1009,"EPHEMERIS_TYPE":0,"CLASSIFICATION_TYPE":"U","NORAD_CAT_ID":67938,"ELEMENT_SET_NO":999,"REV_AT_EPOCH":338,"BSTAR":0.00043161,"MEAN_MOTION_DOT":0.00091086,"MEAN_MOTION_DDOT":0},{"OBJECT_NAME":"STARLINK-36246","OBJECT_ID":"2026-037H","EPOCH":"2026-03-10T20:00:00.999360","MEAN_MOTION":15.81936245,"ECCENTRICITY":0.0001728,"INCLINATION":42.9983,"RA_OF_ASC_NODE":191.496,"ARG_OF_PERICENTER":265.3638,"MEAN_ANOMALY":77.5508,"EPHEMERIS_TYPE":0,"CLASSIFICATION_TYPE":"U","NORAD_CAT_ID":67939,"ELEMENT_SET_NO":999,"REV_AT_EPOCH":329,"BSTAR":0.00060073,"MEAN_MOTION_DOT":0.00127359,"MEAN_MOTION_DDOT":0},{"OBJECT_NAME":"STARLINK-36907","OBJECT_ID":"2026-037J","EPOCH":"2026-03-10T18:00:01.999296","MEAN_MOTION":15.81999106,"ECCENTRICITY":0.0001593,"INCLINATION":42.9986,"RA_OF_ASC_NODE":191.9741,"ARG_OF_PERICENTER":289.9692,"MEAN_ANOMALY":310.617,"EPHEMERIS_TYPE":0,"CLASSIFICATION_TYPE":"U","NORAD_CAT_ID":67940,"ELEMENT_SET_NO":999,"REV_AT_EPOCH":336,"BSTAR":9.973e-5,"MEAN_MOTION_DOT":0.000205,"MEAN_MOTION_DDOT":0},{"OBJECT_NAME":"STARLINK-36927","OBJECT_ID":"2026-037K","EPOCH":"2026-03-10T18:00:01.999296","MEAN_MOTION":15.81972977,"ECCENTRICITY":0.0001628,"INCLINATION":42.9986,"RA_OF_ASC_NODE":191.953,"ARG_OF_PERICENTER":274.9484,"MEAN_ANOMALY":334.2078,"EPHEMERIS_TYPE":0,"CLASSIFICATION_TYPE":"U","NORAD_CAT_ID":67941,"ELEMENT_SET_NO":999,"REV_AT_EPOCH":336,"BSTAR":0.00021524,"MEAN_MOTION_DOT":0.00044933,"MEAN_MOTION_DDOT":0},{"OBJECT_NAME":"STARLINK-36914","OBJECT_ID":"2026-037L","EPOCH":"2026-03-10T18:00:01.999296","MEAN_MOTION":15.8196513,"ECCENTRICITY":0.0001186,"INCLINATION":42.9988,"RA_OF_ASC_NODE":191.9956,"ARG_OF_PERICENTER":266.4951,"MEAN_ANOMALY":325.5707,"EPHEMERIS_TYPE":0,"CLASSIFICATION_TYPE":"U","NORAD_CAT_ID":67942,"ELEMENT_SET_NO":999,"REV_AT_EPOCH":336,"BSTAR":0.00024659,"MEAN_MOTION_DOT":0.00051575,"MEAN_MOTION_DDOT":0},{"OBJECT_NAME":"STARLINK-36851","OBJECT_ID":"2026-037M","EPOCH":"2026-03-10T18:00:01.999296","MEAN_MOTION":15.81944663,"ECCENTRICITY":0.0001011,"INCLINATION":42.9986,"RA_OF_ASC_NODE":191.9856,"ARG_OF_PERICENTER":271.7002,"MEAN_ANOMALY":324.6419,"EPHEMERIS_TYPE":0,"CLASSIFICATION_TYPE":"U","NORAD_CAT_ID":67943,"ELEMENT_SET_NO":999,"REV_AT_EPOCH":336,"BSTAR":0.00046721,"MEAN_MOTION_DOT":0.00098638,"MEAN_MOTION_DDOT":0},{"OBJECT_NAME":"STARLINK-36892","OBJECT_ID":"2026-037N","EPOCH":"2026-03-10T18:00:01.999296","MEAN_MOTION":15.81970302,"ECCENTRICITY":0.0001421,"INCLINATION":42.9987,"RA_OF_ASC_NODE":191.9637,"ARG_OF_PERICENTER":301.6928,"MEAN_ANOMALY":303.18,"EPHEMERIS_TYPE":0,"CLASSIFICATION_TYPE":"U","NORAD_CAT_ID":67944,"ELEMENT_SET_NO":999,"REV_AT_EPOCH":336,"BSTAR":0.0002695,"MEAN_MOTION_DOT":0.00056462,"MEAN_MOTION_DDOT":0},{"OBJECT_NAME":"STARLINK-36908","OBJECT_ID":"2026-037P","EPOCH":"2026-03-10T18:00:01.999296","MEAN_MOTION":15.81969639,"ECCENTRICITY":0.0001559,"INCLINATION":42.9988,"RA_OF_ASC_NODE":191.9424,"ARG_OF_PERICENTER":262.7907,"MEAN_ANOMALY":350.6442,"EPHEMERIS_TYPE":0,"CLASSIFICATION_TYPE":"U","NORAD_CAT_ID":67945,"ELEMENT_SET_NO":999,"REV_AT_EPOCH":336,"BSTAR":0.00025893,"MEAN_MOTION_DOT":0.00054212,"MEAN_MOTION_DDOT":0},{"OBJECT_NAME":"STARLINK-36909","OBJECT_ID":"2026-037Q","EPOCH":"2026-03-10T18:00:01.999296","MEAN_MOTION":15.81984168,"ECCENTRICITY":0.0001418,"INCLINATION":42.9985,"RA_OF_ASC_NODE":191.9308,"ARG_OF_PERICENTER":274.0644,"MEAN_ANOMALY":343.6229,"EPHEMERIS_TYPE":0,"CLASSIFICATION_TYPE":"U","NORAD_CAT_ID":67946,"ELEMENT_SET_NO":999,"REV_AT_EPOCH":336,"BSTAR":0.00013419,"MEAN_MOTION_DOT":0.00027771,"MEAN_MOTION_DDOT":0},{"OBJECT_NAME":"STARLINK-36920","OBJECT_ID":"2026-037R","EPOCH":"2026-03-10T18:00:01.999296","MEAN_MOTION":15.81977153,"ECCENTRICITY":0.0001404,"INCLINATION":42.9987,"RA_OF_ASC_NODE":191.9194,"ARG_OF_PERICENTER":267.5656,"MEAN_ANOMALY":354.3987,"EPHEMERIS_TYPE":0,"CLASSIFICATION_TYPE":"U","NORAD_CAT_ID":67947,"ELEMENT_SET_NO":999,"REV_AT_EPOCH":336,"BSTAR":0.00017551,"MEAN_MOTION_DOT":0.00036512,"MEAN_MOTION_DDOT":0},{"OBJECT_NAME":"STARLINK-36873","OBJECT_ID":"2026-037S","EPOCH":"2026-03-10T18:00:01.999296","MEAN_MOTION":15.81880335,"ECCENTRICITY":0.0001529,"INCLINATION":42.9987,"RA_OF_ASC_NODE":191.9099,"ARG_OF_PERICENTER":293.5241,"MEAN_ANOMALY":332.7835,"EPHEMERIS_TYPE":0,"CLASSIFICATION_TYPE":"U","NORAD_CAT_ID":67948,"ELEMENT_SET_NO":999,"REV_AT_EPOCH":336,"BSTAR":0.00084458,"MEAN_MOTION_DOT":0.00179901,"MEAN_MOTION_DDOT":0}]
