STARLINK-36852          
1 67933U 26037B   26069.83334490  .00135413  00000+0  63689-3 0  9994
2 67933  42.9985 191.5604 0001333 279.9384  37.3157 15.81972897  3382
STARLINK-36861          
1 67934U 26037C   26069.83334490  .00096498  00000+0  45688-3 0  9993
2 67934  42.9984 191.5498 0002028 239.9642  81.5768 15.81960051  3386
STARLINK-36860          
1 67935U 26037D   26069.83334490  .00105068  00000+0  49691-3 0  9996
2 67935  42.9982 191.5390 0001985 252.1518  73.6621 15.81953185  3386
STARLINK-36848          
1 67936U 26037E   26069.83334490  .00059262  00000+0  28265-3 0  9995
2 67936  42.9984 191.5173 0001870 295.6246  38.7473 15.81969796  3383
STARLINK-36370          
1 67937U 26037F   26069.83334490  .00104787  00000+0  49549-3 0  9997
2 67937  42.9984 191.5291 0001739 285.9067  44.1764 15.81958076  3385
STARLINK-36371          
1 67938U 26037G   26069.83334490  .00091086  00000+0  43161-3 0  9999
2 67938  42.9981 191.5062 0002114 257.5312  81.1009 15.81962544  3383
STARLINK-36246          
1 67939U 26037H   26069.83334490  .00127359  00000+0  60073-3 0  9994
2 67939  42.9983 191.4960 0001728 265.3638  77.5508 15.81936245  3292
STARLINK-36907          
1 67940U 26037J   26069.75002314  .00020500  00000+0  99730-4 0  9997
2 67940  42.9986 191.9741 0001593 289.9692 310.6170 15.81999106  3360
STARLINK-36927          
1 67941U 26037K   26069.75002314  .00044933  00000+0  21524-3 0  9999
2 67941  42.9986 191.9530 0001628 274.9484 334.2078 15.81972977  3365
STARLINK-36914          
1 67942U 26037L   26069.75002314  .00051575  00000+0  24659-3 0  9992
2 67942  42.9988 191.9956 0001186 266.4951 325.5707 15.81965130  3369
STARLINK-36851          
1 67943U 26037M   26069.75002314  .00098638  00000+0  46721-3 0  9998
2 67943  42.9986 191.9856 0001011 271.7002 324.6419 15.81944663  3368
STARLINK-36892          
1 67944U 26037N   26069.75002314  .00056462  00000+0  26950-3 0  9990
2 67944  42.9987 191.9637 0001421 301.6928 303.1800 15.81970302  3367
STARLINK-36908          
1 67945U 26037P   26069.75002314  .00054212  00000+0  25893-3 0  9997
2 67945  42.9988 191.9424 0001559 262.7907 350.6442 15.81969639  3369
STARLINK-36909          
1 67946U 26037Q   26069.75002314  .00027771  00000+0  13419-3 0  9999
2 67946  42.9985 191.9308 0001418 274.0644 343.6229 15.81984168  3365
STARLINK-36920          
1 67947U 26037R   26069.75002314  .00036512  00000+0  17551-3 0  9994
2 67947  42.9987 191.9194 0001404 267.5656 354.3987 15.81977153  3362
STARLINK-36873          
1 67948U 26037S   26069.75002314  .00179901  00000+0  84458-3 0  9995
2 67948  42.9987 191.9099 0001529 293.5241 332.7835 15.81880335  3361
